[{"OBJECT_NAME":"RISAT-2BR1","OBJECT_ID":"2019-089F","EPOCH":"2026-03-09T22:23:56.080608","MEAN_MOTION":15.01632497,"ECCENTRICITY":0.00130957,"INCLINATION":36.9618,"RA_OF_ASC_NODE":340.419,"ARG_OF_PERICENTER":88.0635,"MEAN_ANOMALY":272.1607,"EPHEMERIS_TYPE":0,"CLASSIFICATION_TYPE":"U","NORAD_CAT_ID":44857,"ELEMENT_SET_NO":999,"REV_AT_EPOCH":34227,"BSTAR":0.00042406412,"MEAN_MOTION_DOT":5.543e-5,"MEAN_MOTION_DDOT":0},{"OBJECT_NAME":"STARLINK-34732","OBJECT_ID":"2025-158Z","EPOCH":"2026-03-09T12:50:54.515616","MEAN_MOTION":15.05652348,"ECCENTRICITY":0.00028479,"INCLINATION":97.6019,"RA_OF_ASC_NODE":293.9519,"ARG_OF_PERICENTER":87.1761,"MEAN_ANOMALY":272.9791,"EPHEMERIS_TYPE":0,"CLASSIFICATION_TYPE":"U","NORAD_CAT_ID":64955,"ELEMENT_SET_NO":999,"REV_AT_EPOCH":3533,"BSTAR":0.00041751075,"MEAN_MOTION_DOT":5.969e-5,"MEAN_MOTION_DDOT":0}]
